start=new Date('2022-12-19T00:00:00.000Z').valueOf();
sats=[{"REV_AT_EPOCH":"2357","MEAN_ELEMENT_THEORY":"SGP4","LAUNCH_DATE":"2022-07-24","ECCENTRICITY":"0.00023360","NORAD_CAT_ID":"53243","TLE_LINE1":"1 53243U 22086B   22352.68517581 -.00000238  00000-0  31577-5 0  9992","REF_FRAME":"TEME","MEAN_MOTION":"15.08839682","APOAPSIS":"541.362","INCLINATION":"53.2172","MEAN_ANOMALY":"327.0888","OBJECT_TYPE":"PAYLOAD","EPOCH":"2022-12-18T16:26:39.189984","PERIOD":"95.438","MEAN_MOTION_DOT":"-0.00000238","FILE":"3709623","RCS_SIZE":"LARGE","SEMIMAJOR_AXIS":"6917.881","SITE":"AFETR","BSTAR":"0.00000315770000","EPHEMERIS_TYPE":"0","CLASSIFICATION_TYPE":"U","MEAN_MOTION_DDOT":"0.0000000000000","ARG_OF_PERICENTER":"33.0250","TIME_SYSTEM":"UTC","OBJECT_ID":"2022-086B","RA_OF_ASC_NODE":"87.8897","TLE_LINE2":"2 53243  53.2172  87.8897 0002336  33.0250 327.0888 15.08839682 23576","COUNTRY_CODE":"US","CENTER_NAME":"EARTH","PERIAPSIS":"538.130","ELEMENT_SET_NO":"999","OBJECT_NAME":"STARLINK-4047","GP_ID":"220871333","DECAY_DATE":null},{"EPHEMERIS_TYPE":"0","BSTAR":"0.00008980400000","MEAN_MOTION_DOT":"0.00001141","FILE":"3709623","SEMIMAJOR_AXIS":"6917.893","RCS_SIZE":"LARGE","SITE":"AFETR","PERIOD":"95.438","MEAN_ANOMALY":"326.5476","EPOCH":"2022-12-18T14:35:22.808832","OBJECT_TYPE":"PAYLOAD","MEAN_MOTION":"15.08835817","APOAPSIS":"541.414","INCLINATION":"53.2170","TLE_LINE1":"1 53244U 22086C   22352.60790288  .00001141  00000-0  89804-4 0  9990","REF_FRAME":"TEME","MEAN_ELEMENT_THEORY":"SGP4","LAUNCH_DATE":"2022-07-24","ECCENTRICITY":"0.00023940","NORAD_CAT_ID":"53244","REV_AT_EPOCH":"2354","DECAY_DATE":null,"GP_ID":"220871976","OBJECT_NAME":"STARLINK-4125","TLE_LINE2":"2 53244  53.2170  88.2448 0002394  33.5667 326.5476 15.08835817 23543","COUNTRY_CODE":"US","CENTER_NAME":"EARTH","PERIAPSIS":"538.102","ELEMENT_SET_NO":"999","RA_OF_ASC_NODE":"88.2448","TIME_SYSTEM":"UTC","OBJECT_ID":"2022-086C","MEAN_MOTION_DDOT":"0.0000000000000","CLASSIFICATION_TYPE":"U","ARG_OF_PERICENTER":"33.5667"},{"DECAY_DATE":null,"OBJECT_NAME":"STARLINK-4124","GP_ID":"220830558","ELEMENT_SET_NO":"999","PERIAPSIS":"538.213","CENTER_NAME":"EARTH","COUNTRY_CODE":"US","TLE_LINE2":"2 53245  53.2171  88.5032 0002249  40.0230 320.0928 15.08832329 23552","RA_OF_ASC_NODE":"88.5032","OBJECT_ID":"2022-086D","TIME_SYSTEM":"UTC","ARG_OF_PERICENTER":"40.0230","MEAN_MOTION_DDOT":"0.0000000000000","CLASSIFICATION_TYPE":"U","EPHEMERIS_TYPE":"0","BSTAR":"-0.00001940200000","SITE":"AFETR","FILE":"3708942","RCS_SIZE":"LARGE","SEMIMAJOR_AXIS":"6917.904","MEAN_MOTION_DOT":"-0.00000597","PERIOD":"95.438","OBJECT_TYPE":"PAYLOAD","EPOCH":"2022-12-18T13:10:35.500800","MEAN_ANOMALY":"320.0928","INCLINATION":"53.2171","APOAPSIS":"541.325","MEAN_MOTION":"15.08832329","REF_FRAME":"TEME","TLE_LINE1":"1 53245U 22086D   22352.54902200 -.00000597  00000-0 -19402-4 0  9996","NORAD_CAT_ID":"53245","LAUNCH_DATE":"2022-07-24","ECCENTRICITY":"0.00022490","MEAN_ELEMENT_THEORY":"SGP4","REV_AT_EPOCH":"2355"},{"CENTER_NAME":"EARTH","PERIAPSIS":"538.313","ELEMENT_SET_NO":"999","TLE_LINE2":"2 53246  53.2162  87.6314 0001928  39.1274 320.9858 15.08872382 22458","COUNTRY_CODE":"US","RA_OF_ASC_NODE":"87.6314","OBJECT_ID":"2022-086E","TIME_SYSTEM":"UTC","ARG_OF_PERICENTER":"39.1274","MEAN_MOTION_DDOT":"0.0000000000000","CLASSIFICATION_TYPE":"U","DECAY_DATE":null,"OBJECT_NAME":"STARLINK-4131","GP_ID":"220872823","INCLINATION":"53.2162","MEAN_MOTION":"15.08872382","APOAPSIS":"540.980","REF_FRAME":"TEME","TLE_LINE1":"1 53246U 22086E   22352.74404140  .00008264  00000-0  53623-3 0  9998","LAUNCH_DATE":"2022-07-24","ECCENTRICITY":"0.00019280","NORAD_CAT_ID":"53246","MEAN_ELEMENT_THEORY":"SGP4","REV_AT_EPOCH":"2245","EPHEMERIS_TYPE":"0","BSTAR":"0.00053623000000","SITE":"AFETR","MEAN_MOTION_DOT":"0.00008264","SEMIMAJOR_AXIS":"6917.781","FILE":"3709623","RCS_SIZE":"LARGE","PERIOD":"95.436","EPOCH":"2022-12-18T17:51:25.176960","OBJECT_TYPE":"PAYLOAD","MEAN_ANOMALY":"320.9858"},{"BSTAR":"-0.00010315000000","EPHEMERIS_TYPE":"0","SITE":"AFETR","FILE":"3709623","SEMIMAJOR_AXIS":"6917.914","RCS_SIZE":"LARGE","MEAN_MOTION_DOT":"-0.00001929","PERIOD":"95.438","EPOCH":"2022-12-18T16:20:45.564288","OBJECT_TYPE":"PAYLOAD","MEAN_ANOMALY":"326.8116","INCLINATION":"53.2187","APOAPSIS":"541.309","MEAN_MOTION":"15.08828985","REF_FRAME":"TEME","TLE_LINE1":"1 53247U 22086F   22352.68108292 -.00001929  00000-0 -10315-3 0  9995","NORAD_CAT_ID":"53247","LAUNCH_DATE":"2022-07-24","ECCENTRICITY":"0.00022110","MEAN_ELEMENT_THEORY":"SGP4","REV_AT_EPOCH":"2362","DECAY_DATE":null,"GP_ID":"220871763","OBJECT_NAME":"STARLINK-4061","PERIAPSIS":"538.250","ELEMENT_SET_NO":"999","CENTER_NAME":"EARTH","COUNTRY_CODE":"US","TLE_LINE2":"2 53247  53.2187  82.9352 0002211  33.3015 326.8116 15.08828985 23623","RA_OF_ASC_NODE":"82.9352","OBJECT_ID":"2022-086F","TIME_SYSTEM":"UTC","ARG_OF_PERICENTER":"33.3015","MEAN_MOTION_DDOT":"0.0000000000000","CLASSIFICATION_TYPE":"U"},{"EPHEMERIS_TYPE":"0","BSTAR":"-0.00003668900000","SITE":"AFETR","MEAN_MOTION_DOT":"-0.00000872","RCS_SIZE":"LARGE","FILE":"3708569","SEMIMAJOR_AXIS":"6917.921","PERIOD":"95.438","OBJECT_TYPE":"PAYLOAD","EPOCH":"2022-12-18T13:04:41.500128","MEAN_ANOMALY":"313.7676","INCLINATION":"53.2166","MEAN_MOTION":"15.08826814","APOAPSIS":"541.228","REF_FRAME":"TEME","TLE_LINE1":"1 53248U 22086G   22352.54492477 -.00000872  00000-0 -36689-4 0  9991","LAUNCH_DATE":"2022-07-24","ECCENTRICITY":"0.00020850","NORAD_CAT_ID":"53248","MEAN_ELEMENT_THEORY":"SGP4","REV_AT_EPOCH":"2310","DECAY_DATE":null,"OBJECT_NAME":"STARLINK-4135","GP_ID":"220795564","CENTER_NAME":"EARTH","PERIAPSIS":"538.343","ELEMENT_SET_NO":"999","TLE_LINE2":"2 53248  53.2166  83.5374 0002085  46.3489 313.7676 15.08826814 23108","COUNTRY_CODE":"US","RA_OF_ASC_NODE":"83.5374","OBJECT_ID":"2022-086G","TIME_SYSTEM":"UTC","ARG_OF_PERICENTER":"46.3489","CLASSIFICATION_TYPE":"U","MEAN_MOTION_DDOT":"0.0000000000000"},{"CLASSIFICATION_TYPE":"U","MEAN_MOTION_DDOT":"0.0000000000000","ARG_OF_PERICENTER":"37.4320","TIME_SYSTEM":"UTC","OBJECT_ID":"2022-086H","RA_OF_ASC_NODE":"78.4918","TLE_LINE2":"2 53249  53.2174  78.4918 0002343  37.4320 322.6835 15.08832794 23376","COUNTRY_CODE":"US","CENTER_NAME":"EARTH","PERIAPSIS":"538.147","ELEMENT_SET_NO":"999","OBJECT_NAME":"STARLINK-4128","GP_ID":"220872613","DECAY_DATE":null,"REV_AT_EPOCH":"2337","MEAN_ELEMENT_THEORY":"SGP4","LAUNCH_DATE":"2022-07-24","ECCENTRICITY":"0.00023430","NORAD_CAT_ID":"53249","TLE_LINE1":"1 53249U 22086H   22352.55730794  .00000442  00000-0  45923-4 0  9992","REF_FRAME":"TEME","MEAN_MOTION":"15.08832794","APOAPSIS":"541.388","INCLINATION":"53.2174","MEAN_ANOMALY":"322.6835","EPOCH":"2022-12-18T13:22:31.406016","OBJECT_TYPE":"PAYLOAD","PERIOD":"95.438","MEAN_MOTION_DOT":"0.00000442","RCS_SIZE":"LARGE","FILE":"3709623","SEMIMAJOR_AXIS":"6917.902","SITE":"AFETR","BSTAR":"0.00004592300000","EPHEMERIS_TYPE":"0"},{"DECAY_DATE":null,"GP_ID":"220872400","OBJECT_NAME":"STARLINK-4059","COUNTRY_CODE":"US","TLE_LINE2":"2 53250  53.2134  78.4739 0002251  50.4775 309.6416 15.08839021 23372","ELEMENT_SET_NO":"999","PERIAPSIS":"538.191","CENTER_NAME":"EARTH","RA_OF_ASC_NODE":"78.4739","TIME_SYSTEM":"UTC","OBJECT_ID":"2022-086J","CLASSIFICATION_TYPE":"U","MEAN_MOTION_DDOT":"0.0000000000000","ARG_OF_PERICENTER":"50.4775","BSTAR":"0.00029652000000","EPHEMERIS_TYPE":"0","FILE":"3709623","RCS_SIZE":"LARGE","SEMIMAJOR_AXIS":"6917.883","MEAN_MOTION_DOT":"0.00004434","SITE":"AFETR","PERIOD":"95.438","MEAN_ANOMALY":"309.6416","OBJECT_TYPE":"PAYLOAD","EPOCH":"2022-12-18T13:27:50.367168","APOAPSIS":"541.306","MEAN_MOTION":"15.08839021","INCLINATION":"53.2134","TLE_LINE1":"1 53250U 22086J   22352.56099962  .00004434  00000-0  29652-3 0  9995","REF_FRAME":"TEME","MEAN_ELEMENT_THEORY":"SGP4","NORAD_CAT_ID":"53250","ECCENTRICITY":"0.00022510","LAUNCH_DATE":"2022-07-24","REV_AT_EPOCH":"2337"},{"OBJECT_NAME":"STARLINK-4129","GP_ID":"220871334","DECAY_DATE":null,"MEAN_MOTION_DDOT":"0.0000000000000","CLASSIFICATION_TYPE":"U","ARG_OF_PERICENTER":"34.8050","TIME_SYSTEM":"UTC","OBJECT_ID":"2022-086K","RA_OF_ASC_NODE":"77.9205","TLE_LINE2":"2 53251  53.2169  77.9205 0002632  34.8050 325.3114 15.08847255 23376","COUNTRY_CODE":"US","CENTER_NAME":"EARTH","PERIAPSIS":"537.902","ELEMENT_SET_NO":"999","MEAN_ANOMALY":"325.3114","EPOCH":"2022-12-18T16:22:42.097152","OBJECT_TYPE":"PAYLOAD","PERIOD":"95.437","MEAN_MOTION_DOT":"0.00009305","SEMIMAJOR_AXIS":"6917.858","FILE":"3709623","RCS_SIZE":"LARGE","SITE":"AFETR","BSTAR":"0.00060182000000","EPHEMERIS_TYPE":"0","REV_AT_EPOCH":"2337","MEAN_ELEMENT_THEORY":"SGP4","ECCENTRICITY":"0.00026320","LAUNCH_DATE":"2022-07-24","NORAD_CAT_ID":"53251","TLE_LINE1":"1 53251U 22086K   22352.68243168  .00009305  00000-0  60182-3 0  9993","REF_FRAME":"TEME","MEAN_MOTION":"15.08847255","APOAPSIS":"541.544","INCLINATION":"53.2169"},{"LAUNCH_DATE":"2022-07-24","ECCENTRICITY":"0.00026680","NORAD_CAT_ID":"53252","MEAN_ELEMENT_THEORY":"SGP4","REV_AT_EPOCH":"2337","INCLINATION":"53.2178","MEAN_MOTION":"15.08828454","APOAPSIS":"541.626","REF_FRAME":"TEME","TLE_LINE1":"1 53252U 22086L   22352.55826835  .00001101  00000-0  87334-4 0  9993","PERIOD":"95.438","EPOCH":"2022-12-18T13:23:54.385440","OBJECT_TYPE":"PAYLOAD","MEAN_ANOMALY":"333.3818","BSTAR":"0.00008733400000","EPHEMERIS_TYPE":"0","SITE":"AFETR","MEAN_MOTION_DOT":"0.00001101","SEMIMAJOR_AXIS":"6917.916","FILE":"3709623","RCS_SIZE":"LARGE","OBJECT_ID":"2022-086L","TIME_SYSTEM":"UTC","ARG_OF_PERICENTER":"26.7312","MEAN_MOTION_DDOT":"0.0000000000000","CLASSIFICATION_TYPE":"U","CENTER_NAME":"EARTH","ELEMENT_SET_NO":"999","PERIAPSIS":"537.935","TLE_LINE2":"2 53252  53.2178  78.4804 0002668  26.7312 333.3818 15.08828454 23378","COUNTRY_CODE":"US","RA_OF_ASC_NODE":"78.4804","DECAY_DATE":null,"GP_ID":"220871977","OBJECT_NAME":"STARLINK-4132"}];
